NORAD_CAT_ID,OBJECT_NAME,OBJECT_TYPE,EPOCH,MEAN_MOTION,ECCENTRICITY,INCLINATION,RA_OF_ASC_NODE,ARG_OF_PERICENTER,MEAN_ANOMALY,BSTAR,MEAN_MOTION_DOT,MEAN_MOTION_DDOT,TLE_LINE0,TLE_LINE1,TLE_LINE2,SEMIMAJOR_AXIS,PERIOD,APOGEE,PERIGEE,DECAYED
51788.0,STARLINK-3641,PAYLOAD,2023-10-15 10:07:42,15.08826163,0.0001633,53.2158,322.8443,90.4097,269.7082,-0.00010323,-1.93e-05,0.0,0 STARLINK-3641,1 51788U 22017W   23288.42202353 -.00001930  00000-0 -10323-3 0  9992,2 51788  53.2158 322.8443 0001633  90.4097 269.7082 15.08826163 91636,6917.923,95.438,540.917,538.658,0.0
51788.0,STARLINK-3641,PAYLOAD,2023-10-16 08:23:07,15.08846043,0.0001626,53.2153,318.6799,89.7697,270.3482,0.00078641,0.00012252,0.0,0 STARLINK-3641,1 51788U 22017W   23289.34938718  .00012252  00000-0  78641-3 0  9999,2 51788  53.2153 318.6799 0001626  89.7697 270.3482 15.08846043 91773,6917.862,95.437,540.852,538.602,0.0
51788.0,STARLINK-3641,PAYLOAD,2023-10-17 11:24:38,15.08888425,0.0001687,53.2151,313.6225,90.4334,269.6852,0.00092833,0.00014537,0.0,0 STARLINK-3641,1 51788U 22017W   23290.47544148  .00014537  00000-0  92833-3 0  9992,2 51788  53.2151 313.6225 0001687  90.4334 269.6852 15.08888425 91945,6917.732,95.434,540.764,538.43,0.0
51788.0,STARLINK-3641,PAYLOAD,2023-10-18 01:43:07,15.08836719,0.0001708,53.2156,310.9441,90.8398,269.279,-0.00033694,-5.646e-05,0.0,0 STARLINK-3641,1 51788U 22017W   23291.07160989 -.00005646  00000-0 -33694-3 0  9999,2 51788  53.2156 310.9441 0001708  90.8398 269.2790 15.08836719 92035,6917.89,95.438,540.937,538.574,0.0
51788.0,STARLINK-3641,PAYLOAD,2023-10-18 11:15:26,15.08832632,0.0001204,53.2162,309.161,74.1363,285.9762,-7.3717e-05,-1.461e-05,0.0,0 STARLINK-3641,1 51788U 22017W   23291.46905566 -.00001461  00000-0 -73717-4 0  9992,2 51788  53.2162 309.1610 0001204  74.1363 285.9762 15.08832632 92098,6917.903,95.438,540.601,538.935,0.0
51788.0,STARLINK-3641,PAYLOAD,2023-10-19 11:06:14,15.08836448,0.0001347,53.2169,304.7027,84.0113,276.1032,0.00054154,8.34e-05,0.0,0 STARLINK-3641,1 51788U 22017W   23292.46266565  .00008340  00000-0  54154-3 0  9996,2 51788  53.2169 304.7027 0001347  84.0113 276.1032 15.08836448 92247,6917.891,95.438,540.688,538.824,0.0
51788.0,STARLINK-3641,PAYLOAD,2023-10-19 17:27:47,15.08831167,0.0001344,53.2167,303.5121,82.1615,277.9529,0.0003068,4.597e-05,0.0,0 STARLINK-3641,1 51788U 22017W   23292.72762854  .00004597  00000-0  30680-3 0  9995,2 51788  53.2167 303.5121 0001344  82.1615 277.9529 15.08831167 92287,6917.907,95.438,540.702,538.843,0.0
51788.0,STARLINK-3641,PAYLOAD,2023-10-20 06:10:52,15.08845068,0.0001376,53.2166,301.1325,86.2685,273.8465,0.00052601,8.095e-05,0.0,0 STARLINK-3641,1 51788U 22017W   23293.25754721  .00008095  00000-0  52601-3 0  9992,2 51788  53.2166 301.1325 0001376  86.2685 273.8465 15.08845068 92361,6917.865,95.437,540.682,538.778,0.0
51788.0,STARLINK-3641,PAYLOAD,2023-10-21 10:47:48,15.08845226,0.0001429,53.2161,295.7808,90.0299,270.0857,0.00026313,3.903e-05,0.0,0 STARLINK-3641,1 51788U 22017W   23294.44986799  .00003903  00000-0  26313-3 0  9990,2 51788  53.2161 295.7808 0001429  90.0299 270.0857 15.08845226 92543,6917.864,95.437,540.718,538.741,0.0
51788.0,STARLINK-3641,PAYLOAD,2023-10-21 17:09:21,15.08842953,0.0001396,53.2158,294.5912,93.4676,266.6476,0.00019982,2.894e-05,0.0,0 STARLINK-3641,1 51788U 22017W   23294.71482834  .00002894  00000-0  19982-3 0  9993,2 51788  53.2158 294.5912 0001396  93.4676 266.6476 15.08842953 92587,6917.871,95.437,540.702,538.771,0.0
51788.0,STARLINK-3641,PAYLOAD,2023-10-22 07:27:49,15.08851796,0.0001626,53.2157,291.9157,97.4524,262.6653,0.00047453,7.275e-05,0.0,0 STARLINK-3641,1 51788U 22017W   23295.31098423  .00007275  00000-0  47453-3 0  9999,2 51788  53.2157 291.9157 0001626  97.4524 262.6653 15.08851796 92678,6917.844,95.437,540.834,538.584,0.0
51788.0,STARLINK-3641,PAYLOAD,2023-10-22 17:00:08,15.08841694,0.0001799,53.2172,290.1306,79.9892,280.1303,1.417e-05,-6.3e-07,0.0,0 STARLINK-3641,1 51788U 22017W   23295.70842683 -.00000063  00000-0  14170-4 0  9997,2 51788  53.2172 290.1306 0001799  79.9892 280.1303 15.08841694 92736,6917.875,95.437,540.985,538.496,0.0
51788.0,STARLINK-3641,PAYLOAD,2023-10-23 07:18:36,15.08830091,0.000189,53.2173,287.4536,81.0756,279.045,-0.00013132,-2.377e-05,0.0,0 STARLINK-3641,1 51788U 22017W   23296.30459460 -.00002377  00000-0 -13132-3 0  9998,2 51788  53.2173 287.4536 0001890  81.0756 279.0450 15.08830091 92825,6917.911,95.438,541.083,538.468,0.0
51788.0,STARLINK-3641,PAYLOAD,2023-10-23 16:50:55,15.08837972,0.000173,53.2165,285.671,88.1305,271.9885,6.334e-05,7.2e-06,0.0,0 STARLINK-3641,1 51788U 22017W   23296.70203436  .00000720  00000-0  63340-4 0  9997,2 51788  53.2165 285.6710 0001730  88.1305 271.9885 15.08837972 92885,6917.887,95.438,540.948,538.555,0.0
51788.0,STARLINK-3641,PAYLOAD,2023-10-24 05:34:00,15.08845022,0.0001609,53.2154,283.2925,87.6412,272.4764,0.00027496,4.091e-05,0.0,0 STARLINK-3641,1 51788U 22017W   23297.23195238  .00004091  00000-0  27496-3 0  9992,2 51788  53.2154 283.2925 0001609  87.6412 272.4764 15.08845022 92969,6917.865,95.437,540.843,538.617,0.0
51788.0,STARLINK-3641,PAYLOAD,2023-10-24 08:44:46,15.08850487,0.0001671,53.2156,282.6975,86.3814,273.7369,0.00039072,5.938e-05,0.0,0 STARLINK-3641,1 51788U 22017W   23297.36443115  .00005938  00000-0  39072-3 0  9990,2 51788  53.2156 282.6975 0001671  86.3814 273.7369 15.08850487 92988,6917.848,95.437,540.869,538.557,0.0
51788.0,STARLINK-3641,PAYLOAD,2023-10-25 08:35:33,15.088545,0.0001755,53.216,278.2341,97.343,262.7761,0.00041999,6.405e-05,0.0,0 STARLINK-3641,1 51788U 22017W   23298.35802910  .00006405  00000-0  41999-3 0  9993,2 51788  53.2160 278.2341 0001755  97.3430 262.7761 15.08854500 93132,6917.836,95.437,540.915,538.487,0.0
51788.0,STARLINK-3641,PAYLOAD,2023-10-26 05:15:34,15.0884443,0.0001712,53.2154,274.37,88.3258,271.793,0.00012594,1.717e-05,0.0,0 STARLINK-3641,1 51788U 22017W   23299.21915235  .00001717  00000-0  12594-3 0  9994,2 51788  53.2154 274.3700 0001712  88.3258 271.7930 15.08844430 93265,6917.867,95.437,540.916,538.548,0.0
51788.0,STARLINK-3641,PAYLOAD,2023-10-26 08:26:20,15.08846625,0.0001734,53.2156,273.7756,89.1585,270.9606,0.00013772,1.905e-05,0.0,0 STARLINK-3641,1 51788U 22017W   23299.35163108  .00001905  00000-0  13772-3 0  9991,2 51788  53.2156 273.7756 0001734  89.1585 270.9606 15.08846625 93288,6917.86,95.437,540.925,538.526,0.0
51788.0,STARLINK-3641,PAYLOAD,2023-10-27 05:06:21,15.0885833,0.0001631,53.2148,269.9098,90.8046,269.3133,0.00038607,5.865e-05,0.0,0 STARLINK-3641,1 51788U 22017W   23300.21274398  .00005865  00000-0  38607-3 0  9996,2 51788  53.2148 269.9098 0001631  90.8046 269.3133 15.08858330 93410,6917.824,95.436,540.818,538.561,0.0
51788.0,STARLINK-3641,PAYLOAD,2023-10-27 21:00:13,15.08842521,0.0001848,53.216,266.9394,95.7253,264.395,0.00010073,1.315e-05,0.0,0 STARLINK-3641,1 51788U 22017W   23300.87515102  .00001315  00000-0  10073-3 0  9992,2 51788  53.2160 266.9394 0001848  95.7253 264.3950 15.08842521 93512,6917.873,95.437,541.016,538.459,0.0
51788.0,STARLINK-3641,PAYLOAD,2023-10-27 22:35:36,15.08832882,0.0001675,53.2157,266.6385,98.1671,261.9511,-0.00015445,-2.745e-05,0.0,0 STARLINK-3641,1 51788U 22017W   23300.94139250 -.00002745  00000-0 -15445-3 0  9994,2 51788  53.2157 266.6385 0001675  98.1671 261.9511 15.08832882 93520,6917.902,95.438,540.926,538.608,0.0
51788.0,STARLINK-3641,PAYLOAD,2023-10-28 06:32:31,15.08841606,0.000175,53.2162,265.1522,101.8849,258.2339,7.993e-05,9.84e-06,0.0,0 STARLINK-3641,1 51788U 22017W   23301.27259044  .00000984  00000-0  79930-4 0  9996,2 51788  53.2162 265.1522 0001750 101.8849 258.2339 15.08841606 93572,6917.875,95.437,540.951,538.53,0.0
51788.0,STARLINK-3641,PAYLOAD,2023-10-28 22:26:23,15.088341,0.0001721,53.2168,262.1786,102.7907,257.3277,-5.3546e-05,-1.14e-05,0.0,0 STARLINK-3641,1 51788U 22017W   23301.93499513 -.00001140  00000-0 -53546-4 0  9998,2 51788  53.2168 262.1786 0001721 102.7907 257.3277 15.08834100 93673,6917.898,95.438,540.954,538.573,0.0
51788.0,STARLINK-3641,PAYLOAD,2023-10-29 04:47:55,15.08845404,0.0001927,53.217,260.9914,104.1589,255.9617,0.00016345,2.315e-05,0.0,0 STARLINK-3641,1 51788U 22017W   23302.19995278  .00002315  00000-0  16345-3 0  9994,2 51788  53.2170 260.9914 0001927 104.1589 255.9617 15.08845404 93711,6917.864,95.437,541.062,538.396,0.0
51788.0,STARLINK-3641,PAYLOAD,2023-10-29 14:20:15,15.08842163,0.0001823,53.2169,259.2029,89.8086,270.3115,0.00032228,4.845e-05,0.0,0 STARLINK-3641,1 51788U 22017W   23302.59739614  .00004845  00000-0  32228-3 0  9996,2 51788  53.2169 259.2029 0001823  89.8086 270.3115 15.08842163 93772,6917.874,95.437,541.0,538.478,0.0
51788.0,STARLINK-3641,PAYLOAD,2023-10-30 04:38:43,15.0883855,0.0001772,53.2168,256.5281,94.6308,265.4887,0.00016148,2.283e-05,0.0,0 STARLINK-3641,1 51788U 22017W   23303.19355937  .00002283  00000-0  16148-3 0  9992,2 51788  53.2168 256.5281 0001772  94.6308 265.4887 15.08838550 93861,6917.885,95.438,540.976,538.524,0.0
51788.0,STARLINK-3641,PAYLOAD,2023-10-30 14:11:02,15.08834964,0.0001748,53.2169,254.7446,89.9945,270.1248,0.00012023,1.626e-05,0.0,0 STARLINK-3641,1 51788U 22017W   23303.59100261  .00001626  00000-0  12023-3 0  9992,2 51788  53.2169 254.7446 0001748  89.9945 270.1248 15.08834964 93928,6917.896,95.438,540.97,538.552,0.0
51788.0,STARLINK-3641,PAYLOAD,2023-10-31 14:01:49,15.08838003,0.0001763,53.2184,250.2818,88.4146,271.7048,8.2585e-05,1.026e-05,0.0,0 STARLINK-3641,1 51788U 22017W   23304.58460533  .00001026  00000-0  82585-4 0  9998,2 51788  53.2184 250.2818 0001763  88.4146 271.7048 15.08838003 94073,6917.886,95.438,540.971,538.532,0.0
51788.0,STARLINK-3641,PAYLOAD,2023-11-01 05:55:40,15.08851785,0.0001729,53.2178,247.3071,93.7983,266.3207,0.00024936,3.684e-05,0.0,0 STARLINK-3641,1 51788U 22017W   23305.24699916  .00003684  00000-0  24936-3 0  9998,2 51788  53.2178 247.3071 0001729  93.7983 266.3207 15.08851785 94174,6917.844,95.437,540.905,538.513,0.0
